SARSAT 7 (NOAA 15)      
1 25338U 98030A   24248.13809615  .00000818  00000+0  35580-3 0  9994
2 25338  98.5656 273.6071 0011498  94.2752 265.9743 14.26690878368699
GPS BIIR-08             
1 27663U 03005A   24247.69487266  .00000011  00000+0  00000+0 0  9999
2 27663  55.0771 240.8703 0137326  47.5925 120.0147  2.00570419158242
GPS BIIR-11             
1 28190U 04009A   24247.37704253 -.00000042  00000+0  00000+0 0  9998
2 28190  55.3861 301.9151 0098863 152.2515 300.9162  2.00557094149877
GPS BIIR-13             
1 28474U 04045A   24247.18841894 -.00000109  00000+0  00000+0 0  9999
2 28474  55.4112 351.0905 0163178 294.3193  68.8776  2.00562157145353
SARSAT 10 (NOAA 18)     
1 28654U 05018A   24248.21809720  .00000814  00000+0  45710-3 0  9990
2 28654  98.8702 324.5151 0014075 195.3347 164.7400 14.13310930994426
GPS BIIR-14M            
1 28874U 05038A   24247.18208774 -.00000037  00000+0  00000+0 0  9990
2 28874  55.4319 299.3869 0137462 284.8506  50.0743  2.00550307138755
METEOSAT-9 (MSG-2)      
1 28912U 05049B   24247.65301566  .00000122  00000+0  00000+0 0  9994
2 28912   7.8632  60.1837 0000921 222.9600 340.9044  1.00275369   476
GOES 13                 
1 29155U 06018A   24247.62086992  .00000056  00000+0  00000+0 0  9997
2 29155   2.8258  84.3375 0069613 256.1087 109.3489  0.98943254 36819
GPS BIIR-16M            
1 29601U 06052A   24247.27470520  .00000010  00000+0  00000+0 0  9996
2 29601  55.1100 239.8700 0084365  83.5848 277.3705  2.00572074130331
GPS BIIR-17M            
1 32260U 07047A   24247.08079390  .00000010  00000+0  00000+0 0  9995
2 32260  53.6470 107.0217 0158404  77.1092 284.7531  2.00560339123730
GPS BIIR-18M            
1 32384U 07062A   24247.63852965 -.00000039  00000+0  00000+0 0  9999
2 32384  55.5726 300.2423 0028303 156.6059  16.4038  2.00551981122440
SARSAT 12 (NOAA 19)     
1 33591U 09005A   24248.18082924  .00000724  00000+0  41133-3 0  9996
2 33591  99.0404 304.7919 0014692  71.6610 288.6159 14.13102894802782
GOES 14                 
1 35491U 09033A   24247.62252066 -.00000074  00000+0  00000+0 0  9995
2 35491   0.0252 210.9687 0004065 305.1361 302.8839  1.00271335    50
GOES 15                 
1 36411U 10008A   24247.81229944  .00000030  00000+0  00000+0 0  9993
2 36411   0.4052 274.8436 0005549 298.6256 123.8524  1.00269560 53117
GSAT0101 (GALILEO-PFM)  
1 37846U 11060A   24247.73900373 -.00000105  00000+0  00000+0 0  9992
2 37846  57.1274 359.4123 0001042  74.3951 285.6259  1.70476006 80016
GSAT0102 (GALILEO-FM2)  
1 37847U 11060B   24246.48938021 -.00000109  00000+0  00000+0 0  9999
2 37847  57.1284 359.4462 0001451 327.1104  31.5305  1.70475484 80128
LUCH 5A                 
1 37951U 11074B   24247.82028681 -.00000050  00000+0  00000+0 0  9996
2 37951   7.0828  83.7176 0004111  78.8069 283.2481  1.00275225 46528
METEOSAT-10 (MSG-3)     
1 38552U 12035B   24247.82896611 -.00000011  00000+0  00000+0 0  9995
2 38552   3.1401  61.4228 0000499 247.2172 333.2951  1.00271795 44325
SARSAT 13 (METOP-B)     
1 38771U 12049A   24247.86891993  .00000627  00000+0  30633-3 0  9996
2 38771  98.6212 303.2986 0001020 113.2678 246.8607 14.21495033620731
GPS BIIF-3              
1 38833U 12053A   24247.17844954 -.00000013  00000+0  00000+0 0  9990
2 38833  53.5183 170.2837 0156388  57.0554 304.4397  2.00559895 86363
GSAT0103 (GALILEO-FM3)  
1 38857U 12055A   24246.01873922  .00000001  00000+0  00000+0 0  9993
2 38857  55.4376 119.4930 0003298 279.8423  80.2173  1.70473836 73872
GPS BIIF-4              
1 39166U 13023A   24247.53942029 -.00000032  00000+0  00000+0 0  9991
2 39166  55.0446 295.4216 0123987  44.9899 316.0837  2.00562664 82811
INSAT-3D                
1 39216U 13038B   24247.86854851 -.00000346  00000+0  00000+0 0  9992
2 39216   0.2331  93.2718 0001562 120.0992 212.2806  1.00267494 40546
GPS BIIF-5              
1 39533U 14008A   24247.53630340 -.00000009  00000+0  00000+0 0  9997
2 39533  53.6005 175.8777 0073252 221.2061 138.2344  2.00573060 76617
LUCH 5V                 
1 39727U 14023A   24248.02051469 -.00000273  00000+0  00000+0 0  9996
2 39727   3.4906  75.4417 0003226 134.6844 235.6554  1.00272607555980
GPS BIIF-6              
1 39741U 14026A   24247.31819687 -.00000109  00000+0  00000+0 0  9998
2 39741  56.7036 356.8430 0031598 313.8979  45.8581  2.00562856 75465
GPS BIIF-7              
1 40105U 14045A   24247.40946711  .00000015  00000+0  00000+0 0  9999
2 40105  54.9633 114.4818 0028543 115.0862 245.3060  2.00571805 73002
GSAT0201 (GALILEO 5)    
1 40128U 14050A   24246.70217946 -.00000055  00000+0  00000+0 0  9998
2 40128  49.5792 299.9451 1613195 154.2949 214.7209  1.85519627 66216
GSAT0202 (GALILEO 6)    
1 40129U 14050B   24246.96018795 -.00000054  00000+0  00000+0 0  9997
2 40129  49.5956 299.0125 1612237 155.1020 213.6516  1.85520285 68385
GPS BIIF-8              
1 40294U 14068A   24247.78364122 -.00000041  00000+0  00000+0 0  9994
2 40294  56.4894  56.1767 0055191  65.1119 295.4908  2.00564987 72145
GLONASS-K 2             
1 40315U 14075A   24247.03014657  .00000007  00000+0  00000+0 0  9990
2 40315  63.6223 212.9697 0020727 210.8761 148.9737  2.13101484 75955
GPS BIIF-9              
1 40534U 15013A   24247.91325072  .00000007  00000+0  00000+0 0  9999
2 40534  53.3211 231.1343 0090298  30.2648 330.2305  2.00560936 68765
GSAT0203 (GALILEO 7)    
1 40544U 15017A   24246.34490706 -.00000110  00000+0  00000+0 0  9993
2 40544  56.9224 359.3736 0003650 235.3176 124.6534  1.70476489 58075
GSAT0204 (GALILEO 8)    
1 40545U 15017B   24246.59930565 -.00000109  00000+0  00000+0 0  9991
2 40545  56.9289 359.3823 0003715 217.5544 142.4257  1.70475985 21123
GPS BIIF-10             
1 40730U 15033A   24247.07798556 -.00000030  00000+0  00000+0 0  9994
2 40730  54.5276 293.8749 0095175  19.7434 340.6986  2.00563134 66914
METEOSAT-11 (MSG-4)     
1 40732U 15034A   24247.78892297  .00000056  00000+0  00000+0 0  9999
2 40732   1.5718  70.4818 0001041 173.1187  33.0753  1.00269312   692
GSAT0205 (GALILEO 9)    
1 40889U 15045A   24245.78079800  .00000026  00000+0  00000+0 0  9996
2 40889  55.1880 239.6524 0003194   6.8325 353.1650  1.70473441 55879
GSAT0206 (GALILEO 10)   
1 40890U 15045B   24246.58803258  .00000025  00000+0  00000+0 0  9998
2 40890  55.1861 239.6256 0001982 329.8876  30.0896  1.70473424 55913
GPS BIIF-11             
1 41019U 15062A   24247.63683415 -.00000041  00000+0  00000+0 0  9998
2 41019  56.4694  56.0362 0097707 224.5448 134.6959  2.00562747 64765
ELEKTRO-L 2             
1 41105U 15074A   24247.92893083 -.00000120  00000+0  00000+0 0  9991
2 41105   5.0378  78.5014 0002501 154.6506  70.2891  1.00271336 31976
GSAT0209 (GALILEO 12)   
1 41174U 15079A   24246.17147452  .00000002  00000+0  00000+0 0  9998
2 41174  55.4566 119.1988 0003185 340.7362  19.3497  1.70474081 53642
GSAT0208 (GALILEO 11)   
1 41175U 15079B   24246.97786327  .00000007  00000+0  00000+0 0  9992
2 41175  55.4555 119.1744 0002801 339.5885  20.5019  1.70473929 54073
GPS BIIF-12             
1 41328U 16007A   24247.21929222  .00000015  00000+0  00000+0 0  9994
2 41328  55.1556 115.3493 0080220 238.5636 120.7433  2.00558142 62766
GSAT0211 (GALILEO 14)   
1 41549U 16030A   24246.51373365  .00000025  00000+0  00000+0 0  9999
2 41549  55.3343 239.6470 0003532 314.9065  45.0539  1.70473494 51528
INSAT-3DR               
1 41752U 16054A   24246.98243870 -.00000087  00000+0  00000+0 0  9998
2 41752   0.0200 118.8034 0011833 143.5041 147.9891  1.00272444 29275
GSAT0207 (GALILEO 15)   
1 41859U 16069A   24247.05164879  .00000006  00000+0  00000+0 0  9992
2 41859  55.1222 119.1571 0002977 321.2636  38.8167  1.70473974 48286
GSAT0212 (GALILEO 16)   
1 41860U 16069B   24246.90586737  .00000006  00000+0  00000+0 0  9998
2 41860  55.1198 119.1574 0002670  12.8015 347.3063  1.70474105 48535
GSAT0213 (GALILEO 17)   
1 41861U 16069C   24247.27432542  .00000007  00000+0  00000+0 0  9995
2 41861  55.1225 119.1540 0002551 290.5969  69.4781  1.70474480 48402
GSAT0214 (GALILEO 18)   
1 41862U 16069D   24246.83302088  .00000005  00000+0  00000+0 0  9996
2 41862  55.1201 119.1597 0001699 302.2008  57.8835  1.70474122 48523
GOES 16                 
1 41866U 16071A   24247.98671823 -.00000254  00000+0  00000+0 0  9993
2 41866   0.0785 281.0611 0000232 293.4665  49.0826  1.00273210 28564
GSAT-17                 
1 42815U 17040B   24247.38035434 -.00000267  00000+0  00000+0 0  9995
2 42815   0.0518 288.8710 0003689 316.6812 327.8720  1.00273427 26253
GSAT0215 (GALILEO 19)   
1 43055U 17079A   24247.32219558  .00000026  00000+0  00000+0 0  9991
2 43055  55.3118 239.4456 0003486 266.5643  93.3806  1.70474203 41875
GSAT0216 (GALILEO 20)   
1 43056U 17079B   24247.61383454  .00000026  00000+0  00000+0 0  9991
2 43056  55.3120 239.4375 0004900 274.5522  85.3754  1.70474325 41863
GSAT0217 (GALILEO 21)   
1 43057U 17079C   24247.24775136  .00000026  00000+0  00000+0 0  9993
2 43057  55.3099 239.4463 0004210 287.0292  72.9097  1.70474283 41870
GSAT0218 (GALILEO 22)   
1 43058U 17079D   24245.70807530  .00000026  00000+0  00000+0 0  9997
2 43058  55.3106 239.4860 0005405 270.8080  89.1233  1.70474213 41878
GOES 17                 
1 43226U 18022A   24247.62321569 -.00000098  00000+0  00000+0 0  9999
2 43226   0.0160 341.5150 0002037 221.9540 259.4211  1.00272321 23894
GSAT0221 (GALILEO 25)   
1 43564U 18060A   24246.19581929 -.00000110  00000+0  00000+0 0  9990
2 43564  57.3025 359.3973 0003394 259.0384 100.9282  1.70476305 38034
GSAT0222 (GALILEO 26)   
1 43565U 18060B   24247.00103766 -.00000107  00000+0  00000+0 0  9997
2 43565  57.3057 359.3778 0003866 222.8707 137.1063  1.70476143 38099
GSAT0219 (GALILEO 23)   
1 43566U 18060C   24247.22279926 -.00000107  00000+0  00000+0 0  9994
2 43566  57.3058 359.3737 0002501 260.7171  99.2625  1.70476365 38073
GSAT0220 (GALILEO 24)   
1 43567U 18060D   24245.68372050 -.00000111  00000+0  00000+0 0  9990
2 43567  57.3055 359.4149 0002751 257.4131 102.5596  1.70476281 38033
